$$SOE
2460721.500000000, A.D. 2025-Feb-15 00:00:00.0000, -2.847860901160538E+08, -2.308203315128660E+08, -1.598224732976840E+08,
2460728.500000000, A.D. 2025-Feb-22 00:00:00.0000, -2.767732725539344E+08, -2.373539797364257E+08, -1.592989184894691E+08,
2460735.500000000, A.D. 2025-Mar-01 00:00:00.0000, -2.685471699447908E+08, -2.437047552788937E+08, -1.586525980709388E+08,
2460742.500000000, A.D. 2025-Mar-08 00:00:00.0000, -2.601108695938912E+08, -2.498648136925757E+08, -1.578820904550783E+08,
2460749.500000000, A.D. 2025-Mar-15 00:00:00.0000, -2.514676864241905E+08, -2.558261745430189E+08, -1.569860049151850E+08,
2460756.500000000, A.D. 2025-Mar-22 00:00:00.0000, -2.426211791693696E+08, -2.615807201096298E+08, -1.559629854564677E+08,
2460763.500000000, A.D. 2025-Mar-29 00:00:00.0000, -2.335751659798897E+08, -2.671201968900379E+08, -1.548117154107416E+08,
2460770.500000000, A.D. 2025-Apr-05 00:00:00.0000, -2.243337391428634E+08, -2.724362168484640E+08, -1.535309225613386E+08,
2460777.500000000, A.D. 2025-Apr-12 00:00:00.0000, -2.149012808649476E+08, -2.775202583893309E+08, -1.521193846471619E+08,
2460784.500000000, A.D. 2025-Apr-19 00:00:00.0000, -2.052824803245878E+08, -2.823636680309280E+08, -1.505759353351657E+08,
2460791.500000000, A.D. 2025-Apr-26 00:00:00.0000, -1.954823517359099E+08, -2.869576630851879E+08, -1.488994707377397E+08,
2460798.500000000, A.D. 2025-May-03 00:00:00.0000, -1.855062533180510E+08, -2.912933354382310E+08, -1.470889565196426E+08,
2460805.500000000, A.D. 2025-May-10 00:00:00.0000, -1.753599071410247E+08, -2.953616565487636E+08, -1.451434356333616E+08,
2460812.500000000, A.D. 2025-May-17 00:00:00.0000, -1.650494198019532E+08, -2.991534838440576E+08, -1.430620367282621E+08,
2460819.500000000, A.D. 2025-May-24 00:00:00.0000, -1.545813037382928E+08, -3.026595687203156E+08, -1.408439832946953E+08,
2460826.500000000, A.D. 2025-May-31 00:00:00.0000, -1.439624987299918E+08, -3.058705660023072E+08, -1.384886035982346E+08,
2460833.500000000, A.D. 2025-Jun-07 00:00:00.0000, -1.332003939482331E+08, -3.087770438359236E+08, -1.359953413104443E+08,
2460840.500000000, A.D. 2025-Jun-14 00:00:00.0000, -1.223028528546286E+08, -3.113694948709321E+08, -1.333637667126841E+08,
2460847.500000000, A.D. 2025-Jun-21 00:00:00.0000, -1.112782396519920E+08, -3.136383522096967E+08, -1.305935888884556E+08,
2460854.500000000, A.D. 2025-Jun-28 00:00:00.0000, -1.001354440539802E+08, -3.155740085771356E+08, -1.276846690821416E+08,
2460861.500000000, A.D. 2025-Jul-05 00:00:00.0000, -8.888390576081011E+07, -3.171668367880906E+08, -1.246370349398452E+08,
2460868.500000000, A.D. 2025-Jul-12 00:00:00.0000, -7.753363967270654E+07, -3.184072125605245E+08, -1.214508956133511E+08,
2460875.500000000, A.D. 2025-Jul-19 00:00:00.0000, -6.609526145834088E+07, -3.192855405019780E+08, -1.181266578078443E+08,
2460882.500000000, A.D. 2025-Jul-26 00:00:00.0000, -5.458001303684305E+07, -3.197922835850865E+08, -1.146649428030980E+08,
2460889.500000000, A.D. 2025-Aug-02 00:00:00.0000, -4.299978763293837E+07, -3.199179963539609E+08, -1.110666044459346E+08,
2460896.500000000, A.D. 2025-Aug-09 00:00:00.0000, -3.136715405905408E+07, -3.196533621410146E+08, -1.073327480971776E+08,
2460903.500000000, A.D. 2025-Aug-16 00:00:00.0000, -1.969537977422702E+07, -3.189892346191264E+08, -1.034647505085926E+08,
2460910.500000000, A.D. 2025-Aug-23 00:00:00.0000, -7.998451999662130E+06, -3.179166839235933E+08, -9.946428059753110E+07,
2460917.500000000, A.D. 2025-Aug-30 00:00:00.0000, 3.708903924474545E+06, -3.164270468615246E+08, -9.533332100810030E+07,
2460924.500000000, A.D. 2025-Sep-06 00:00:00.0000, 1.541120807194388E+07, -3.145119804107885E+08, -9.107419013491142E+07,
2460931.500000000, A.D. 2025-Sep-13 00:00:00.0000, 2.709221029707222E+07, -3.121635211524624E+08, -8.668956451390901E+07,
2460938.500000000, A.D. 2025-Sep-20 00:00:00.0000, 3.873487939071500E+07, -3.093741523915989E+08, -8.218250183456425E+07,
2460945.500000000, A.D. 2025-Sep-27 00:00:00.0000, 5.032139883064422E+07, -3.061368759032221E+08, -7.755646419749406E+07,
2460952.500000000, A.D. 2025-Oct-04 00:00:00.0000, 6.183316791616394E+07, -3.024452877316176E+08, -7.281534112535486E+07,
2460959.500000000, A.D. 2025-Oct-11 00:00:00.0000, 7.325080877521756E+07, -2.982936588529915E+08, -6.796347205840893E+07,
2460966.500000000, A.D. 2025-Oct-18 00:00:00.0000, 8.455418043589625E+07, -2.936770207252524E+08, -6.300566802130270E+07,
2460973.500000000, A.D. 2025-Oct-25 00:00:00.0000, 9.572240104234067E+07, -2.885912553259629E+08, -5.794723205857749E+07,
2460980.500000000, A.D. 2025-Nov-01 00:00:00.0000, 1.067338792095117E+08, -2.830331891162283E+08, -5.279397797360536E+07,
2460987.500000000, A.D. 2025-Nov-08 00:00:00.0000, 1.175663555010696E+08, -2.770006902371725E+08, -4.755224685799892E+07,
2460994.500000000, A.D. 2025-Nov-15 00:00:00.0000, 1.281969550965348E+08, -2.704927680825189E+08, -4.222892086523090E+07,
2461001.500000000, A.D. 2025-Nov-22 00:00:00.0000, 1.386022529007315E+08, -2.635096739112124E+08, -3.683143364210039E+07,
2461008.500000000, A.D. 2025-Nov-29 00:00:00.0000, 1.487583516829535E+08, -2.560530000344157E+08, -3.136777667210898E+07,
2461015.500000000, A.D. 2025-Dec-06 00:00:00.0000, 1.586409715568833E+08, -2.481257761581872E+08, -2.584650067224829E+07,
2461022.500000000, A.D. 2025-Dec-13 00:00:00.0000, 1.682255516270244E+08, -2.397325644758801E+08, -2.027671169366525E+07,
2461029.500000000, A.D. 2025-Dec-20 00:00:00.0000, 1.774873674454207E+08, -2.308795505102092E+08, -1.466806151556842E+07,
2461036.500000000, A.D. 2025-Dec-27 00:00:00.0000, 1.864016630628558E+08, -2.215746249669060E+08, -9.030731414637819E+06,
2461043.500000000, A.D. 2026-Jan-03 00:00:00.0000, 1.949437957303183E+08, -2.118274549328831E+08, -3.375408683882654E+06,
2461050.500000000, A.D. 2026-Jan-10 00:00:00.0000, 2.030893924911014E+08, -2.016495427295643E+08, 2.286744482712150E+06,
2461057.500000000, A.D. 2026-Jan-17 00:00:00.0000, 2.108145176082054E+08, -1.910542701267212E+08, 7.944130037372991E+06,
2461064.500000000, A.D. 2026-Jan-24 00:00:00.0000, 2.180958491720263E+08, -1.800569255688489E+08, 1.358476122621714E+07,
2461071.500000000, A.D. 2026-Jan-31 00:00:00.0000, 2.249108627193376E+08, -1.686747122407728E+08, 1.919631782479329E+07,
2461078.500000000, A.D. 2026-Feb-07 00:00:00.0000, 2.312380192849088E+08, -1.569267350767685E+08, 2.476620922450322E+07,
2461085.500000000, A.D. 2026-Feb-14 00:00:00.0000, 2.370569551093238E+08, -1.448339650945309E+08, 3.028164487754313E+07,
2461092.500000000, A.D. 2026-Feb-21 00:00:00.0000, 2.423486700649752E+08, -1.324191792828301E+08, 3.572971140289963E+07,
2461099.500000000, A.D. 2026-Feb-28 00:00:00.0000, 2.470957101683412E+08, -1.197068742590825E+08, 4.109745561211549E+07,
2461106.500000000, A.D. 2026-Mar-07 00:00:00.0000, 2.512823384132829E+08, -1.067231556470113E+08, 4.637197233013117E+07,
2461113.500000000, A.D. 2026-Mar-14 00:00:00.0000, 2.548946929451906E+08, -9.349560616055231E+07, 5.154049520173048E+07,
2461120.500000000, A.D. 2026-Mar-21 00:00:00.0000, 2.579209307110946E+08, -8.005313082556312E+07, 5.659048901367369E+07,
2461127.500000000, A.D. 2026-Mar-28 00:00:00.0000, 2.603513511903830E+08, -6.642578032296370E+07, 6.150974212618659E+07,
2461134.500000000, A.D. 2026-Apr-04 00:00:00.0000, 2.621784966165008E+08, -5.264455608032210E+07, 6.628645723989645E+07,
2461141.500000000, A.D. 2026-Apr-11 00:00:00.0000, 2.633972265054925E+08, -3.874120071332292E+07, 7.090933868072782E+07,
2461148.500000000, A.D. 2026-Apr-18 00:00:00.0000, 2.640047648288283E+08, -2.474797754558404E+07, 7.536767447822884E+07,
2461155.500000000, A.D. 2026-Apr-25 00:00:00.0000, 2.640007187713867E+08, -1.069744326717521E+07, 7.965141164339983E+07,
2461162.500000000, A.D. 2026-May-02 00:00:00.0000, 2.633870687654063E+08, 3.377781956649873E+06, 8.375122322846550E+07,
2461169.500000000, A.D. 2026-May-09 00:00:00.0000, 2.621681303617790E+08, 1.744524252731281E+07, 8.765856596923624E+07,
2461176.500000000, A.D. 2026-May-16 00:00:00.0000, 2.603504895005839E+08, 3.147286951709330E+07, 9.136572756995411E+07,
2461183.500000000, A.D. 2026-May-23 00:00:00.0000, 2.579429131002044E+08, 4.542919389773434E+07, 9.486586308296202E+07,
2461190.500000000, A.D. 2026-May-30 00:00:00.0000, 2.549562353644489E+08, 5.928354765688409E+07, 9.815302029223616E+07,
2461197.500000000, A.D. 2026-Jun-06 00:00:00.0000, 2.514032224678708E+08, 7.300624646211991E+07, 1.012221538699791E+08,
2461204.500000000, A.D. 2026-Jun-13 00:00:00.0000, 2.472984226049131E+08, 8.656875157993369E+07, 1.040691282696049E+08,
2461211.500000000, A.D. 2026-Jun-20 00:00:00.0000, 2.426580044333422E+08, 9.994381212616405E+07, 1.066907101809448E+08,
2461218.500000000, A.D. 2026-Jun-27 00:00:00.0000, 2.374995858335701E+08, 1.131055861090249E+08, 1.090845514457620E+08,
2461225.500000000, A.D. 2026-Jul-04 00:00:00.0000, 2.318420565597953E+08, 1.260297389235417E+08, 1.112491633208734E+08,
2461232.500000000, A.D. 2026-Jul-11 00:00:00.0000, 2.257053984524339E+08, 1.386935191938862E+08, 1.131838831361984E+08,
2461239.500000000, A.D. 2026-Jul-18 00:00:00.0000, 2.191105064648961E+08, 1.510758125528813E+08, 1.148888345055618E+08,
2461246.500000000, A.D. 2026-Jul-25 00:00:00.0000, 2.120790133614531E+08, 1.631571743846710E+08, 1.163648822896270E+08,
2461253.500000000, A.D. 2026-Aug-01 00:00:00.0000, 2.046331205880903E+08, 1.749198428808580E+08, 1.176135834997622E+08,
2461260.500000000, A.D. 2026-Aug-08 00:00:00.0000, 1.967954375785657E+08, 1.863477340597039E+08, 1.186371352779786E+08,
2461267.500000000, A.D. 2026-Aug-15 00:00:00.0000, 1.885888315450095E+08, 1.974264210823614E+08, 1.194383210405748E+08,
2461274.500000000, A.D. 2026-Aug-22 00:00:00.0000, 1.800362882174689E+08, 2.081431010815818E+08, 1.200204559453573E+08,
2461281.500000000, A.D. 2026-Aug-29 00:00:00.0000, 1.711607820707372E+08, 2.184865501707480E+08, 1.203873326583347E+08,
2461288.500000000, A.D. 2026-Sep-05 00:00:00.0000, 1.619851586556611E+08, 2.284470657988555E+08, 1.205431677678047E+08,
$$EOE